GLOBALSTAR M094         
1 39074U 13005C   25360.27730262 -.00000093  00000+0  57480-4 0  9997
2 39074  51.9979 317.2601 0000563  28.3318 331.7580 12.62265423596633
GLOBALSTAR M096         
1 39075U 13005D   25360.44869151 -.00000104  00000+0 -10809-5 0  9996
2 39075  52.0090   5.4008 0000126  27.8386 332.2488 12.62269515595572
GLOBALSTAR M078         
1 39076U 13005E   25360.50184983 -.00000188  00000+0 -46998-3 0  9995
2 39076  51.9882  89.4895 0000671 200.4256 159.6584 12.62271289594204
GLOBALSTAR M095         
1 39077U 13005F   25360.60733193 -.00000091  00000+0  71145-4 0  9995
2 39077  52.0087  86.5271 0000273 147.4029 212.6855 12.62267299594078
GLOBALSTAR M087         
1 52888U 22064A   25360.62041673 -.00000093  00000+0  59423-4 0  9999
2 52888  51.9975 227.8255 0000895  62.3666 297.7291 12.62261964169340
